<?xml version="1.0" encoding="UTF-8"?>
<ndm xmlns:xsi="http://www.w3.org/2001/XMLSchema-instance" xsi:noNamespaceSchemaLocation="https://sanaregistry.org/r/ndmxml_unqualified/ndmxml-2.0.0-master-2.0.xsd">
<omm id="CCSDS_OMM_VERS" version="2.0">
<header><CREATION_DATE/><ORIGINATOR/></header><body><segment><metadata><OBJECT_NAME>KUIPER-00061</OBJECT_NAME><OBJECT_ID>2025-134X</OBJECT_ID><CENTER_NAME>EARTH</CENTER_NAME><REF_FRAME>TEME</REF_FRAME><TIME_SYSTEM>UTC</TIME_SYSTEM><MEAN_ELEMENT_THEORY>SGP4</MEAN_ELEMENT_THEORY></metadata><data><meanElements><EPOCH>2025-11-12T14:33:40.608864</EPOCH><MEAN_MOTION>14.79994252</MEAN_MOTION><ECCENTRICITY>.00051044</ECCENTRICITY><INCLINATION>51.9025</INCLINATION><RA_OF_ASC_NODE>25.8238</RA_OF_ASC_NODE><ARG_OF_PERICENTER>248.6853</ARG_OF_PERICENTER><MEAN_ANOMALY>111.3565</MEAN_ANOMALY></meanElements><tleParameters><EPHEMERIS_TYPE>0</EPHEMERIS_TYPE><CLASSIFICATION_TYPE>U</CLASSIFICATION_TYPE><NORAD_CAT_ID>64521</NORAD_CAT_ID><ELEMENT_SET_NO>999</ELEMENT_SET_NO><REV_AT_EPOCH>2279</REV_AT_EPOCH><BSTAR>.12748912E-2</BSTAR><MEAN_MOTION_DOT>.9526E-4</MEAN_MOTION_DOT><MEAN_MOTION_DDOT>0</MEAN_MOTION_DDOT></tleParameters></data></segment></body></omm>
<omm id="CCSDS_OMM_VERS" version="2.0">
<header><CREATION_DATE/><ORIGINATOR/></header><body><segment><metadata><OBJECT_NAME>KUIPER-00062</OBJECT_NAME><OBJECT_ID>2025-134Y</OBJECT_ID><CENTER_NAME>EARTH</CENTER_NAME><REF_FRAME>TEME</REF_FRAME><TIME_SYSTEM>UTC</TIME_SYSTEM><MEAN_ELEMENT_THEORY>SGP4</MEAN_ELEMENT_THEORY></metadata><data><meanElements><EPOCH>2025-11-12T11:10:46.302816</EPOCH><MEAN_MOTION>14.84856428</MEAN_MOTION><ECCENTRICITY>.00068982</ECCENTRICITY><INCLINATION>51.8990</INCLINATION><RA_OF_ASC_NODE>32.4923</RA_OF_ASC_NODE><ARG_OF_PERICENTER>270.5263</ARG_OF_PERICENTER><MEAN_ANOMALY>89.4911</MEAN_ANOMALY></meanElements><tleParameters><EPHEMERIS_TYPE>0</EPHEMERIS_TYPE><CLASSIFICATION_TYPE>U</CLASSIFICATION_TYPE><NORAD_CAT_ID>64522</NORAD_CAT_ID><ELEMENT_SET_NO>999</ELEMENT_SET_NO><REV_AT_EPOCH>2270</REV_AT_EPOCH><BSTAR>.18600434E-2</BSTAR><MEAN_MOTION_DOT>.15774E-3</MEAN_MOTION_DOT><MEAN_MOTION_DDOT>0</MEAN_MOTION_DDOT></tleParameters></data></segment></body></omm>
<omm id="CCSDS_OMM_VERS" version="2.0">
<header><CREATION_DATE/><ORIGINATOR/></header><body><segment><metadata><OBJECT_NAME>KUIPER-00063</OBJECT_NAME><OBJECT_ID>2025-134Z</OBJECT_ID><CENTER_NAME>EARTH</CENTER_NAME><REF_FRAME>TEME</REF_FRAME><TIME_SYSTEM>UTC</TIME_SYSTEM><MEAN_ELEMENT_THEORY>SGP4</MEAN_ELEMENT_THEORY></metadata><data><meanElements><EPOCH>2025-11-13T04:44:01.677696</EPOCH><MEAN_MOTION>14.80033969</MEAN_MOTION><ECCENTRICITY>.0003371</ECCENTRICITY><INCLINATION>51.9043</INCLINATION><RA_OF_ASC_NODE>33.1429</RA_OF_ASC_NODE><ARG_OF_PERICENTER>207.7143</ARG_OF_PERICENTER><MEAN_ANOMALY>152.3640</MEAN_ANOMALY></meanElements><tleParameters><EPHEMERIS_TYPE>0</EPHEMERIS_TYPE><CLASSIFICATION_TYPE>U</CLASSIFICATION_TYPE><NORAD_CAT_ID>64523</NORAD_CAT_ID><ELEMENT_SET_NO>999</ELEMENT_SET_NO><REV_AT_EPOCH>2275</REV_AT_EPOCH><BSTAR>.1369E-2</BSTAR><MEAN_MOTION_DOT>.10256E-3</MEAN_MOTION_DOT><MEAN_MOTION_DDOT>0</MEAN_MOTION_DDOT></tleParameters></data></segment></body></omm>
<omm id="CCSDS_OMM_VERS" version="2.0">
<header><CREATION_DATE/><ORIGINATOR/></header><body><segment><metadata><OBJECT_NAME>KUIPER-00064</OBJECT_NAME><OBJECT_ID>2025-134AA</OBJECT_ID><CENTER_NAME>EARTH</CENTER_NAME><REF_FRAME>TEME</REF_FRAME><TIME_SYSTEM>UTC</TIME_SYSTEM><MEAN_ELEMENT_THEORY>SGP4</MEAN_ELEMENT_THEORY></metadata><data><meanElements><EPOCH>2025-11-13T04:36:18.820800</EPOCH><MEAN_MOTION>14.79655521</MEAN_MOTION><ECCENTRICITY>.0006168</ECCENTRICITY><INCLINATION>51.9041</INCLINATION><RA_OF_ASC_NODE>30.4967</RA_OF_ASC_NODE><ARG_OF_PERICENTER>330.5908</ARG_OF_PERICENTER><MEAN_ANOMALY>29.4707</MEAN_ANOMALY></meanElements><tleParameters><EPHEMERIS_TYPE>0</EPHEMERIS_TYPE><CLASSIFICATION_TYPE>U</CLASSIFICATION_TYPE><NORAD_CAT_ID>64524</NORAD_CAT_ID><ELEMENT_SET_NO>999</ELEMENT_SET_NO><REV_AT_EPOCH>2279</REV_AT_EPOCH><BSTAR>.18548E-2</BSTAR><MEAN_MOTION_DOT>.13858E-3</MEAN_MOTION_DOT><MEAN_MOTION_DDOT>0</MEAN_MOTION_DDOT></tleParameters></data></segment></body></omm>
<omm id="CCSDS_OMM_VERS" version="2.0">
<header><CREATION_DATE/><ORIGINATOR/></header><body><segment><metadata><OBJECT_NAME>KUIPER-00065</OBJECT_NAME><OBJECT_ID>2025-134AB</OBJECT_ID><CENTER_NAME>EARTH</CENTER_NAME><REF_FRAME>TEME</REF_FRAME><TIME_SYSTEM>UTC</TIME_SYSTEM><MEAN_ELEMENT_THEORY>SGP4</MEAN_ELEMENT_THEORY></metadata><data><meanElements><EPOCH>2025-11-12T14:48:59.570496</EPOCH><MEAN_MOTION>14.79973108</MEAN_MOTION><ECCENTRICITY>.00106625</ECCENTRICITY><INCLINATION>51.9030</INCLINATION><RA_OF_ASC_NODE>37.8979</RA_OF_ASC_NODE><ARG_OF_PERICENTER>259.9471</ARG_OF_PERICENTER><MEAN_ANOMALY>100.0289</MEAN_ANOMALY></meanElements><tleParameters><EPHEMERIS_TYPE>0</EPHEMERIS_TYPE><CLASSIFICATION_TYPE>U</CLASSIFICATION_TYPE><NORAD_CAT_ID>64525</NORAD_CAT_ID><ELEMENT_SET_NO>999</ELEMENT_SET_NO><REV_AT_EPOCH>2262</REV_AT_EPOCH><BSTAR>-.1733208E-2</BSTAR><MEAN_MOTION_DOT>-.13436E-3</MEAN_MOTION_DOT><MEAN_MOTION_DDOT>0</MEAN_MOTION_DDOT></tleParameters></data></segment></body></omm>
<omm id="CCSDS_OMM_VERS" version="2.0">
<header><CREATION_DATE/><ORIGINATOR/></header><body><segment><metadata><OBJECT_NAME>KUIPER-00066</OBJECT_NAME><OBJECT_ID>2025-134AC</OBJECT_ID><CENTER_NAME>EARTH</CENTER_NAME><REF_FRAME>TEME</REF_FRAME><TIME_SYSTEM>UTC</TIME_SYSTEM><MEAN_ELEMENT_THEORY>SGP4</MEAN_ELEMENT_THEORY></metadata><data><meanElements><EPOCH>2025-11-13T04:27:37.866816</EPOCH><MEAN_MOTION>15.19481014</MEAN_MOTION><ECCENTRICITY>.0002319</ECCENTRICITY><INCLINATION>51.8912</INCLINATION><RA_OF_ASC_NODE>13.8199</RA_OF_ASC_NODE><ARG_OF_PERICENTER>313.6089</ARG_OF_PERICENTER><MEAN_ANOMALY>46.4698</MEAN_ANOMALY></meanElements><tleParameters><EPHEMERIS_TYPE>0</EPHEMERIS_TYPE><CLASSIFICATION_TYPE>U</CLASSIFICATION_TYPE><NORAD_CAT_ID>64526</NORAD_CAT_ID><ELEMENT_SET_NO>999</ELEMENT_SET_NO><REV_AT_EPOCH>2302</REV_AT_EPOCH><BSTAR>.14821E-2</BSTAR><MEAN_MOTION_DOT>.31682E-3</MEAN_MOTION_DOT><MEAN_MOTION_DDOT>0</MEAN_MOTION_DDOT></tleParameters></data></segment></body></omm>
<omm id="CCSDS_OMM_VERS" version="2.0">
<header><CREATION_DATE/><ORIGINATOR/></header><body><segment><metadata><OBJECT_NAME>KUIPER-00069</OBJECT_NAME><OBJECT_ID>2025-151A</OBJECT_ID><CENTER_NAME>EARTH</CENTER_NAME><REF_FRAME>TEME</REF_FRAME><TIME_SYSTEM>UTC</TIME_SYSTEM><MEAN_ELEMENT_THEORY>SGP4</MEAN_ELEMENT_THEORY></metadata><data><meanElements><EPOCH>2025-11-13T04:00:03.998880</EPOCH><MEAN_MOTION>14.87424373</MEAN_MOTION><ECCENTRICITY>.0007465</ECCENTRICITY><INCLINATION>51.8962</INCLINATION><RA_OF_ASC_NODE>75.9268</RA_OF_ASC_NODE><ARG_OF_PERICENTER>263.9138</ARG_OF_PERICENTER><MEAN_ANOMALY>134.8434</MEAN_ANOMALY></meanElements><tleParameters><EPHEMERIS_TYPE>0</EPHEMERIS_TYPE><CLASSIFICATION_TYPE>U</CLASSIFICATION_TYPE><NORAD_CAT_ID>64816</NORAD_CAT_ID><ELEMENT_SET_NO>999</ELEMENT_SET_NO><REV_AT_EPOCH>579</REV_AT_EPOCH><BSTAR>-.10756E+0</BSTAR><MEAN_MOTION_DOT>-.918268E-2</MEAN_MOTION_DOT><MEAN_MOTION_DDOT>0</MEAN_MOTION_DDOT></tleParameters></data></segment></body></omm>
<omm id="CCSDS_OMM_VERS" version="2.0">
<header><CREATION_DATE/><ORIGINATOR/></header><body><segment><metadata><OBJECT_NAME>KUIPER-00070</OBJECT_NAME><OBJECT_ID>2025-151B</OBJECT_ID><CENTER_NAME>EARTH</CENTER_NAME><REF_FRAME>TEME</REF_FRAME><TIME_SYSTEM>UTC</TIME_SYSTEM><MEAN_ELEMENT_THEORY>SGP4</MEAN_ELEMENT_THEORY></metadata><data><meanElements><EPOCH>2025-11-12T10:06:57.993120</EPOCH><MEAN_MOTION>14.79983099</MEAN_MOTION><ECCENTRICITY>.00100595</ECCENTRICITY><INCLINATION>51.8988</INCLINATION><RA_OF_ASC_NODE>104.1238</RA_OF_ASC_NODE><ARG_OF_PERICENTER>218.7772</ARG_OF_PERICENTER><MEAN_ANOMALY>141.2469</MEAN_ANOMALY></meanElements><tleParameters><EPHEMERIS_TYPE>0</EPHEMERIS_TYPE><CLASSIFICATION_TYPE>U</CLASSIFICATION_TYPE><NORAD_CAT_ID>64817</NORAD_CAT_ID><ELEMENT_SET_NO>999</ELEMENT_SET_NO><REV_AT_EPOCH>1905</REV_AT_EPOCH><BSTAR>.15660867E-2</BSTAR><MEAN_MOTION_DOT>.1176E-3</MEAN_MOTION_DOT><MEAN_MOTION_DDOT>0</MEAN_MOTION_DDOT></tleParameters></data></segment></body></omm>

</ndm>
