KUIPER-00061            
1 64521U 25134X   25316.60672001  .00009526  00000+0  12749-2 0  9998
2 64521  51.9025  25.8238 0005104 248.6853 111.3565 14.79994252 22790
KUIPER-00062            
1 64522U 25134Y   25316.46581369  .00015774  00000+0  18600-2 0  9993
2 64522  51.8990  32.4923 0006898 270.5263  89.4911 14.84856428 22705
KUIPER-00063            
1 64523U 25134Z   25317.19724164  .00010256  00000+0  13690-2 0  9991
2 64523  51.9043  33.1429 0003371 207.7143 152.3640 14.80033969 22754
KUIPER-00064            
1 64524U 25134AA  25317.19188450  .00013858  00000+0  18548-2 0  9992
2 64524  51.9041  30.4967 0006168 330.5908  29.4707 14.79655521 22795
KUIPER-00065            
1 64525U 25134AB  25316.61735614 -.00013436  00000+0 -17332-2 0  9993
2 64525  51.9030  37.8979 0010662 259.9471 100.0289 14.79973108 22628
KUIPER-00066            
1 64526U 25134AC  25317.18585494  .00031682  00000+0  14821-2 0  9997
2 64526  51.8912  13.8199 0002319 313.6089  46.4698 15.19481014 23025
KUIPER-00069            
1 64816U 25151A   25317.16671295 -.00918268  00000+0 -10756+0 0  9997
2 64816  51.8962  75.9268 0007465 263.9138 134.8434 14.87424373  5790
KUIPER-00070            
1 64817U 25151B   25316.42150455  .00011760  00000+0  15661-2 0  9998
2 64817  51.8988 104.1238 0010059 218.7772 141.2469 14.79983099 19056
